start=new Date('2022-04-07T00:00:00.000Z').valueOf();
sats=[{"PERIOD":"95.592","APOAPSIS":"548.334","TIME_SYSTEM":"UTC","TLE_LINE1":"1 46747U 20074J   22096.78176770  .00001925  00000-0  14806-3 0  9992","OBJECT_NAME":"STARLINK-1908","ECCENTRICITY":"0.00016260","MEAN_MOTION_DDOT":"0.0000000000000","ARG_OF_PERICENTER":"65.8266","OBJECT_TYPE":"PAYLOAD","EPOCH":"2022-04-06T18:45:44.729280","PERIAPSIS":"546.082","MEAN_ANOMALY":"294.2893","RA_OF_ASC_NODE":"274.1889","INCLINATION":"53.0556","OBJECT_ID":"2020-074J","CLASSIFICATION_TYPE":"U","FILE":"3391320","MEAN_MOTION":"15.06401715","GP_ID":"200625649","REV_AT_EPOCH":"8070","SEMIMAJOR_AXIS":"6925.343","COUNTRY_CODE":"US","DECAY_DATE":null,"EPHEMERIS_TYPE":"0","SITE":"AFETR","MEAN_ELEMENT_THEORY":"SGP4","RCS_SIZE":"LARGE","MEAN_MOTION_DOT":"0.00001925","REF_FRAME":"TEME","NORAD_CAT_ID":"46747","BSTAR":"0.00014806000000","ELEMENT_SET_NO":"999","TLE_LINE2":"2 46747  53.0556 274.1889 0001626  65.8266 294.2893 15.06401715 80703","CENTER_NAME":"EARTH","LAUNCH_DATE":"2020-10-24"},{"SITE":"AFETR","EPHEMERIS_TYPE":"0","MEAN_ELEMENT_THEORY":"SGP4","RCS_SIZE":"LARGE","MEAN_MOTION_DOT":"0.00001759","NORAD_CAT_ID":"46748","REF_FRAME":"TEME","BSTAR":"0.00013694000000","ELEMENT_SET_NO":"999","TLE_LINE2":"2 46748  53.0545 273.8670 0001518  64.2774 295.8372 15.06400691 80715","CENTER_NAME":"EARTH","LAUNCH_DATE":"2020-10-24","MEAN_MOTION":"15.06400691","GP_ID":"200624397","REV_AT_EPOCH":"8071","SEMIMAJOR_AXIS":"6925.346","COUNTRY_CODE":"US","DECAY_DATE":null,"ARG_OF_PERICENTER":"64.2774","MEAN_MOTION_DDOT":"0.0000000000000","OBJECT_TYPE":"PAYLOAD","EPOCH":"2022-04-06T20:31:54.113952","MEAN_ANOMALY":"295.8372","PERIAPSIS":"546.160","RA_OF_ASC_NODE":"273.8670","INCLINATION":"53.0545","OBJECT_ID":"2020-074K","CLASSIFICATION_TYPE":"U","FILE":"3391320","PERIOD":"95.592","APOAPSIS":"548.263","TIME_SYSTEM":"UTC","TLE_LINE1":"1 46748U 20074K   22096.85548743  .00001759  00000-0  13694-3 0  9993","OBJECT_NAME":"STARLINK-1910","ECCENTRICITY":"0.00015180"},{"MEAN_MOTION_DOT":"-0.00001006","RCS_SIZE":"LARGE","MEAN_ELEMENT_THEORY":"SGP4","EPHEMERIS_TYPE":"0","SITE":"AFETR","LAUNCH_DATE":"2020-10-24","CENTER_NAME":"EARTH","TLE_LINE2":"2 46749  53.0554 274.1350 0001552  61.9987 298.1159 15.06400820 80705","ELEMENT_SET_NO":"999","BSTAR":"-0.00004861900000","NORAD_CAT_ID":"46749","REF_FRAME":"TEME","REV_AT_EPOCH":"8070","GP_ID":"200624148","MEAN_MOTION":"15.06400820","DECAY_DATE":null,"COUNTRY_CODE":"US","SEMIMAJOR_AXIS":"6925.346","EPOCH":"2022-04-06T19:06:59.140512","OBJECT_TYPE":"PAYLOAD","ARG_OF_PERICENTER":"61.9987","MEAN_MOTION_DDOT":"0.0000000000000","CLASSIFICATION_TYPE":"U","FILE":"3391320","OBJECT_ID":"2020-074L","INCLINATION":"53.0554","RA_OF_ASC_NODE":"274.1350","PERIAPSIS":"546.136","MEAN_ANOMALY":"298.1159","TLE_LINE1":"1 46749U 20074L   22096.79651783 -.00001006  00000-0 -48619-4 0  9999","TIME_SYSTEM":"UTC","APOAPSIS":"548.286","PERIOD":"95.592","ECCENTRICITY":"0.00015520","OBJECT_NAME":"STARLINK-1911"},{"APOAPSIS":"548.288","PERIOD":"95.592","TIME_SYSTEM":"UTC","TLE_LINE1":"1 46751U 20074N   22096.85917305  .00002234  00000-0  16884-3 0  9994","OBJECT_NAME":"STARLINK-1920","ECCENTRICITY":"0.00015580","MEAN_MOTION_DDOT":"0.0000000000000","ARG_OF_PERICENTER":"83.3023","EPOCH":"2022-04-06T20:37:12.551520","OBJECT_TYPE":"PAYLOAD","RA_OF_ASC_NODE":"273.8472","PERIAPSIS":"546.130","MEAN_ANOMALY":"276.8143","INCLINATION":"53.0547","OBJECT_ID":"2020-074N","CLASSIFICATION_TYPE":"U","FILE":"3391320","MEAN_MOTION":"15.06401525","GP_ID":"200625399","REV_AT_EPOCH":"8071","SEMIMAJOR_AXIS":"6925.344","COUNTRY_CODE":"US","DECAY_DATE":null,"MEAN_ELEMENT_THEORY":"SGP4","SITE":"AFETR","EPHEMERIS_TYPE":"0","RCS_SIZE":"LARGE","MEAN_MOTION_DOT":"0.00002234","NORAD_CAT_ID":"46751","REF_FRAME":"TEME","BSTAR":"0.00016884000000","TLE_LINE2":"2 46751  53.0547 273.8472 0001558  83.3023 276.8143 15.06401525 80716","ELEMENT_SET_NO":"999","LAUNCH_DATE":"2020-10-24","CENTER_NAME":"EARTH"},{"MEAN_MOTION_DOT":"-0.00000245","MEAN_ELEMENT_THEORY":"SGP4","EPHEMERIS_TYPE":"0","SITE":"AFETR","RCS_SIZE":"LARGE","TLE_LINE2":"2 46752  53.0539 273.7869 0001534  60.7558 299.3585 15.06386504 80712","ELEMENT_SET_NO":"999","LAUNCH_DATE":"2020-10-24","CENTER_NAME":"EARTH","REF_FRAME":"TEME","NORAD_CAT_ID":"46752","BSTAR":"0.00000242020000","GP_ID":"200625150","REV_AT_EPOCH":"8071","MEAN_MOTION":"15.06386504","COUNTRY_CODE":"US","DECAY_DATE":null,"SEMIMAJOR_AXIS":"6925.390","EPOCH":"2022-04-06T20:53:08.844000","OBJECT_TYPE":"PAYLOAD","ARG_OF_PERICENTER":"60.7558","MEAN_MOTION_DDOT":"0.0000000000000","OBJECT_ID":"2020-074P","FILE":"3391320","CLASSIFICATION_TYPE":"U","RA_OF_ASC_NODE":"273.7869","PERIAPSIS":"546.193","MEAN_ANOMALY":"299.3585","INCLINATION":"53.0539","TLE_LINE1":"1 46752U 20074P   22096.87024125 -.00000245  00000-0  24202-5 0  9992","APOAPSIS":"548.317","PERIOD":"95.593","TIME_SYSTEM":"UTC","OBJECT_NAME":"STARLINK-1921","ECCENTRICITY":"0.00015340"},{"OBJECT_NAME":"STARLINK-1922","ECCENTRICITY":"0.00016080","TLE_LINE1":"1 46753U 20074Q   22096.83706374 -.00001007  00000-0 -48716-4 0  9995","PERIOD":"95.593","APOAPSIS":"548.369","TIME_SYSTEM":"UTC","OBJECT_ID":"2020-074Q","FILE":"3391147","CLASSIFICATION_TYPE":"U","PERIAPSIS":"546.142","MEAN_ANOMALY":"288.9143","RA_OF_ASC_NODE":"273.9370","INCLINATION":"53.0556","OBJECT_TYPE":"PAYLOAD","EPOCH":"2022-04-06T20:05:22.307136","MEAN_MOTION_DDOT":"0.0000000000000","ARG_OF_PERICENTER":"71.2021","COUNTRY_CODE":"US","DECAY_DATE":null,"SEMIMAJOR_AXIS":"6925.391","GP_ID":"200599483","REV_AT_EPOCH":"8073","MEAN_MOTION":"15.06386189","ELEMENT_SET_NO":"999","TLE_LINE2":"2 46753  53.0556 273.9370 0001608  71.2021 288.9143 15.06386189 80730","CENTER_NAME":"EARTH","LAUNCH_DATE":"2020-10-24","REF_FRAME":"TEME","NORAD_CAT_ID":"46753","BSTAR":"-0.00004871600000","MEAN_MOTION_DOT":"-0.00001007","SITE":"AFETR","EPHEMERIS_TYPE":"0","MEAN_ELEMENT_THEORY":"SGP4","RCS_SIZE":"LARGE"},{"OBJECT_NAME":"STARLINK-1923","ECCENTRICITY":"0.00014790","TLE_LINE1":"1 46754U 20074R   22096.84442981  .00001508  00000-0  12015-3 0  9994","PERIOD":"95.593","APOAPSIS":"548.261","TIME_SYSTEM":"UTC","OBJECT_ID":"2020-074R","FILE":"3391320","CLASSIFICATION_TYPE":"U","MEAN_ANOMALY":"289.9919","PERIAPSIS":"546.212","RA_OF_ASC_NODE":"273.9013","INCLINATION":"53.0540","OBJECT_TYPE":"PAYLOAD","EPOCH":"2022-04-06T20:15:58.735584","ARG_OF_PERICENTER":"70.1229","MEAN_MOTION_DDOT":"0.0000000000000","COUNTRY_CODE":"US","DECAY_DATE":null,"SEMIMAJOR_AXIS":"6925.371","GP_ID":"200624648","REV_AT_EPOCH":"8071","MEAN_MOTION":"15.06392591","ELEMENT_SET_NO":"999","TLE_LINE2":"2 46754  53.0540 273.9013 0001479  70.1229 289.9919 15.06392591 80716","CENTER_NAME":"EARTH","LAUNCH_DATE":"2020-10-24","REF_FRAME":"TEME","NORAD_CAT_ID":"46754","BSTAR":"0.00012015000000","MEAN_MOTION_DOT":"0.00001508","EPHEMERIS_TYPE":"0","SITE":"AFETR","MEAN_ELEMENT_THEORY":"SGP4","RCS_SIZE":"LARGE"},{"TIME_SYSTEM":"UTC","APOAPSIS":"548.460","PERIOD":"95.593","TLE_LINE1":"1 46755U 20074S   22096.84949952  .00002058  00000-0  15708-3 0  9998","ECCENTRICITY":"0.00017740","OBJECT_NAME":"STARLINK-1924","ARG_OF_PERICENTER":"58.9060","MEAN_MOTION_DDOT":"0.0000000000000","EPOCH":"2022-04-06T20:23:16.758528","OBJECT_TYPE":"PAYLOAD","INCLINATION":"53.0537","RA_OF_ASC_NODE":"278.8821","MEAN_ANOMALY":"301.2103","PERIAPSIS":"546.003","FILE":"3391320","CLASSIFICATION_TYPE":"U","OBJECT_ID":"2020-074S","MEAN_MOTION":"15.06394006","REV_AT_EPOCH":"8064","GP_ID":"200624900","SEMIMAJOR_AXIS":"6925.367","DECAY_DATE":null,"COUNTRY_CODE":"US","RCS_SIZE":"LARGE","MEAN_ELEMENT_THEORY":"SGP4","SITE":"AFETR","EPHEMERIS_TYPE":"0","MEAN_MOTION_DOT":"0.00002058","BSTAR":"0.00015708000000","NORAD_CAT_ID":"46755","REF_FRAME":"TEME","LAUNCH_DATE":"2020-10-24","CENTER_NAME":"EARTH","TLE_LINE2":"2 46755  53.0537 278.8821 0001774  58.9060 301.2103 15.06394006 80647","ELEMENT_SET_NO":"999"},{"BSTAR":"0.00023046000000","REF_FRAME":"TEME","NORAD_CAT_ID":"46756","LAUNCH_DATE":"2020-10-24","CENTER_NAME":"EARTH","TLE_LINE2":"2 46756  53.0531 278.9308 0001546  67.6607 292.4546 15.06402106 80647","ELEMENT_SET_NO":"999","RCS_SIZE":"LARGE","MEAN_ELEMENT_THEORY":"SGP4","EPHEMERIS_TYPE":"0","SITE":"AFETR","MEAN_MOTION_DOT":"0.00003153","SEMIMAJOR_AXIS":"6925.342","DECAY_DATE":null,"COUNTRY_CODE":"US","MEAN_MOTION":"15.06402106","REV_AT_EPOCH":"8064","GP_ID":"200625650","INCLINATION":"53.0531","RA_OF_ASC_NODE":"278.9308","MEAN_ANOMALY":"292.4546","PERIAPSIS":"546.136","CLASSIFICATION_TYPE":"U","FILE":"3391320","OBJECT_ID":"2020-074T","ARG_OF_PERICENTER":"67.6607","MEAN_MOTION_DDOT":"0.0000000000000","EPOCH":"2022-04-06T20:11:18.085056","OBJECT_TYPE":"PAYLOAD","ECCENTRICITY":"0.00015460","OBJECT_NAME":"STARLINK-1925","TIME_SYSTEM":"UTC","APOAPSIS":"548.278","PERIOD":"95.592","TLE_LINE1":"1 46756U 20074T   22096.84118154  .00003153  00000-0  23046-3 0  9992"},{"MEAN_MOTION":"15.06394203","REV_AT_EPOCH":"8064","GP_ID":"200624398","SEMIMAJOR_AXIS":"6925.366","DECAY_DATE":null,"COUNTRY_CODE":"US","RCS_SIZE":"LARGE","MEAN_ELEMENT_THEORY":"SGP4","SITE":"AFETR","EPHEMERIS_TYPE":"0","MEAN_MOTION_DOT":"0.00000606","BSTAR":"0.00005956900000","REF_FRAME":"TEME","NORAD_CAT_ID":"46757","LAUNCH_DATE":"2020-10-24","CENTER_NAME":"EARTH","TLE_LINE2":"2 46757  53.0525 278.8043 0001451  68.8650 291.2494 15.06394203 80649","ELEMENT_SET_NO":"999","TIME_SYSTEM":"UTC","APOAPSIS":"548.236","PERIOD":"95.593","TLE_LINE1":"1 46757U 20074U   22096.87066701  .00000606  00000-0  59569-4 0  9996","ECCENTRICITY":"0.00014510","OBJECT_NAME":"STARLINK-1926","ARG_OF_PERICENTER":"68.8650","MEAN_MOTION_DDOT":"0.0000000000000","EPOCH":"2022-04-06T20:53:45.629664","OBJECT_TYPE":"PAYLOAD","INCLINATION":"53.0525","RA_OF_ASC_NODE":"278.8043","PERIAPSIS":"546.226","MEAN_ANOMALY":"291.2494","FILE":"3391320","CLASSIFICATION_TYPE":"U","OBJECT_ID":"2020-074U"}];
